ONEWEB-0228             
1 48780U 21045P   23295.93991440 -.00000003  00000+0 -41930-4 0  9994
2 48780  87.8942  91.9535 0001670  86.8533 273.2788 13.15548117117020
